start=new Date('2021-12-11T00:00:00.000Z').valueOf();
sats=[{"MEAN_MOTION_DOT":"0.00000294","MEAN_ELEMENT_THEORY":"SGP4","TLE_LINE1":"1 47552U 21009E   21344.82601748  .00000294  00000-0  38615-4 0  9997","DECAY_DATE":null,"INCLINATION":"53.0542","GP_ID":"191458107","REF_FRAME":"TEME","PERIOD":"95.592","CENTER_NAME":"EARTH","OBJECT_ID":"2021-009E","COUNTRY_CODE":"US","PERIAPSIS":"545.780","MEAN_ANOMALY":"264.1717","REV_AT_EPOCH":"4733","TIME_SYSTEM":"UTC","BSTAR":"0.00003861500000","ELEMENT_SET_NO":"999","SEMIMAJOR_AXIS":"6925.341","RA_OF_ASC_NODE":"129.2311","TLE_LINE2":"2 47552  53.0542 129.2311 0002059  95.9507 264.1717 15.06402507 47339","OBJECT_TYPE":"PAYLOAD","LAUNCH_DATE":"2021-02-04","FILE":"3237005","EPOCH":"2021-12-10T19:49:27.910272","ARG_OF_PERICENTER":"95.9507","NORAD_CAT_ID":"47552","ECCENTRICITY":"0.00020590","RCS_SIZE":"LARGE","MEAN_MOTION_DDOT":"0.0000000000000","APOAPSIS":"548.632","MEAN_MOTION":"15.06402507","OBJECT_NAME":"STARLINK-1940","CLASSIFICATION_TYPE":"U","EPHEMERIS_TYPE":"0","SITE":"AFETR"},{"PERIAPSIS":"490.432","MEAN_ANOMALY":"262.3305","TIME_SYSTEM":"UTC","REV_AT_EPOCH":"4737","BSTAR":"0.00643500000000","MEAN_MOTION_DOT":"0.00164999","TLE_LINE1":"1 47553U 21009F   21344.95282296  .00164999  00000-0  64350-2 0  9991","MEAN_ELEMENT_THEORY":"SGP4","DECAY_DATE":null,"INCLINATION":"53.0587","GP_ID":"191459359","PERIOD":"94.439","REF_FRAME":"TEME","COUNTRY_CODE":"US","CENTER_NAME":"EARTH","OBJECT_ID":"2021-009F","MEAN_MOTION_DDOT":"0.0000000000000","RCS_SIZE":"LARGE","APOAPSIS":"492.402","MEAN_MOTION":"15.24790235","OBJECT_NAME":"STARLINK-1951","CLASSIFICATION_TYPE":"U","EPHEMERIS_TYPE":"0","SITE":"AFETR","ELEMENT_SET_NO":"999","SEMIMAJOR_AXIS":"6869.552","LAUNCH_DATE":"2021-02-04","TLE_LINE2":"2 47553  53.0587 127.3560 0001434  97.7855 262.3305 15.24790235 47371","OBJECT_TYPE":"PAYLOAD","RA_OF_ASC_NODE":"127.3560","EPOCH":"2021-12-10T22:52:03.903744","FILE":"3237005","ARG_OF_PERICENTER":"97.7855","ECCENTRICITY":"0.00014340","NORAD_CAT_ID":"47553"},{"ELEMENT_SET_NO":"999","SEMIMAJOR_AXIS":"6925.367","OBJECT_TYPE":"PAYLOAD","TLE_LINE2":"2 47554  53.0550 149.4971 0004640 130.6769 229.4623 15.06393963 47044","LAUNCH_DATE":"2021-02-04","RA_OF_ASC_NODE":"149.4971","EPOCH":"2021-12-10T18:21:54.302112","FILE":"3237005","ARG_OF_PERICENTER":"130.6769","ECCENTRICITY":"0.00046400","NORAD_CAT_ID":"47554","MEAN_MOTION_DDOT":"0.0000000000000","RCS_SIZE":"LARGE","APOAPSIS":"550.445","MEAN_MOTION":"15.06393963","OBJECT_NAME":"STARLINK-1953","CLASSIFICATION_TYPE":"U","EPHEMERIS_TYPE":"0","SITE":"AFETR","MEAN_MOTION_DOT":"0.00000560","TLE_LINE1":"1 47554U 21009G   21344.76521183  .00000560  00000-0  56553-4 0  9993","MEAN_ELEMENT_THEORY":"SGP4","DECAY_DATE":null,"INCLINATION":"53.0550","GP_ID":"191459109","REF_FRAME":"TEME","PERIOD":"95.593","COUNTRY_CODE":"US","CENTER_NAME":"EARTH","OBJECT_ID":"2021-009G","PERIAPSIS":"544.019","MEAN_ANOMALY":"229.4623","REV_AT_EPOCH":"4704","TIME_SYSTEM":"UTC","BSTAR":"0.00005655300000"},{"SEMIMAJOR_AXIS":"6925.351","ELEMENT_SET_NO":"999","OBJECT_TYPE":"PAYLOAD","TLE_LINE2":"2 47555  53.0530 139.3198 0002582  94.4436 265.6847 15.06399273 47199","LAUNCH_DATE":"2021-02-04","RA_OF_ASC_NODE":"139.3198","ARG_OF_PERICENTER":"94.4436","EPOCH":"2021-12-10T19:21:34.915968","FILE":"3237005","ECCENTRICITY":"0.00025820","NORAD_CAT_ID":"47555","APOAPSIS":"549.004","MEAN_MOTION_DDOT":"0.0000000000000","RCS_SIZE":"LARGE","OBJECT_NAME":"STARLINK-1954","MEAN_MOTION":"15.06399273","SITE":"AFETR","EPHEMERIS_TYPE":"0","CLASSIFICATION_TYPE":"U","TLE_LINE1":"1 47555U 21009H   21344.80665412  .00000395  00000-0  45422-4 0  9992","MEAN_ELEMENT_THEORY":"SGP4","MEAN_MOTION_DOT":"0.00000395","DECAY_DATE":null,"INCLINATION":"53.0530","GP_ID":"191457857","COUNTRY_CODE":"US","CENTER_NAME":"EARTH","OBJECT_ID":"2021-009H","PERIOD":"95.592","REF_FRAME":"TEME","PERIAPSIS":"545.428","MEAN_ANOMALY":"265.6847","BSTAR":"0.00004542200000","TIME_SYSTEM":"UTC","REV_AT_EPOCH":"4719"},{"MEAN_ELEMENT_THEORY":"SGP4","TLE_LINE1":"1 47556U 21009J   21344.77534214  .00000664  00000-0  63514-4 0  9995","MEAN_MOTION_DOT":"0.00000664","DECAY_DATE":null,"INCLINATION":"53.0542","GP_ID":"191458608","CENTER_NAME":"EARTH","OBJECT_ID":"2021-009J","COUNTRY_CODE":"US","REF_FRAME":"TEME","PERIOD":"95.593","PERIAPSIS":"545.803","MEAN_ANOMALY":"265.6390","BSTAR":"0.00006351400000","REV_AT_EPOCH":"4690","TIME_SYSTEM":"UTC","SEMIMAJOR_AXIS":"6925.383","ELEMENT_SET_NO":"999","RA_OF_ASC_NODE":"159.4445","TLE_LINE2":"2 47556  53.0542 159.4445 0002086  94.4838 265.6390 15.06388858 46904","OBJECT_TYPE":"PAYLOAD","LAUNCH_DATE":"2021-02-04","ARG_OF_PERICENTER":"94.4838","FILE":"3237005","EPOCH":"2021-12-10T18:36:29.560896","NORAD_CAT_ID":"47556","ECCENTRICITY":"0.00020860","APOAPSIS":"548.692","RCS_SIZE":"LARGE","MEAN_MOTION_DDOT":"0.0000000000000","OBJECT_NAME":"STARLINK-1955","MEAN_MOTION":"15.06388858","SITE":"AFETR","EPHEMERIS_TYPE":"0","CLASSIFICATION_TYPE":"U"},{"MEAN_MOTION":"15.06382314","OBJECT_NAME":"STARLINK-1956","RCS_SIZE":"LARGE","MEAN_MOTION_DDOT":"0.0000000000000","APOAPSIS":"548.800","CLASSIFICATION_TYPE":"U","SITE":"AFETR","EPHEMERIS_TYPE":"0","RA_OF_ASC_NODE":"159.0350","TLE_LINE2":"2 47557  53.0544 159.0350 0002212  82.2324 277.8916 15.06382314 46926","OBJECT_TYPE":"PAYLOAD","LAUNCH_DATE":"2021-02-04","ELEMENT_SET_NO":"999","SEMIMAJOR_AXIS":"6925.403","NORAD_CAT_ID":"47557","ECCENTRICITY":"0.00022120","FILE":"3237005","EPOCH":"2021-12-10T20:54:28.265472","ARG_OF_PERICENTER":"82.2324","PERIAPSIS":"545.736","REV_AT_EPOCH":"4692","TIME_SYSTEM":"UTC","BSTAR":"0.00003118100000","MEAN_ANOMALY":"277.8916","DECAY_DATE":null,"MEAN_MOTION_DOT":"0.00000182","MEAN_ELEMENT_THEORY":"SGP4","TLE_LINE1":"1 47557U 21009K   21344.87116048  .00000182  00000-0  31181-4 0  9998","REF_FRAME":"TEME","PERIOD":"95.593","CENTER_NAME":"EARTH","OBJECT_ID":"2021-009K","COUNTRY_CODE":"US","GP_ID":"191458859","INCLINATION":"53.0544"},{"PERIAPSIS":"545.992","MEAN_ANOMALY":"268.8136","TIME_SYSTEM":"UTC","REV_AT_EPOCH":"4732","BSTAR":"0.00005856600000","MEAN_MOTION_DOT":"0.00000591","TLE_LINE1":"1 47558U 21009L   21344.78546372  .00000591  00000-0  58566-4 0  9996","MEAN_ELEMENT_THEORY":"SGP4","DECAY_DATE":null,"GP_ID":"191459610","INCLINATION":"53.0559","REF_FRAME":"TEME","PERIOD":"95.593","COUNTRY_CODE":"US","CENTER_NAME":"EARTH","OBJECT_ID":"2021-009L","MEAN_MOTION_DDOT":"0.0000000000000","RCS_SIZE":"LARGE","APOAPSIS":"548.497","MEAN_MOTION":"15.06389906","OBJECT_NAME":"STARLINK-1957","CLASSIFICATION_TYPE":"U","SITE":"AFETR","EPHEMERIS_TYPE":"0","ELEMENT_SET_NO":"999","SEMIMAJOR_AXIS":"6925.379","TLE_LINE2":"2 47558  53.0559 129.3968 0001809  91.3061 268.8136 15.06389906 47321","OBJECT_TYPE":"PAYLOAD","LAUNCH_DATE":"2021-02-04","RA_OF_ASC_NODE":"129.3968","EPOCH":"2021-12-10T18:51:04.065408","FILE":"3237005","ARG_OF_PERICENTER":"91.3061","ECCENTRICITY":"0.00018090","NORAD_CAT_ID":"47558"},{"PERIAPSIS":"546.105","MEAN_ANOMALY":"273.7906","BSTAR":"0.00006011800000","REV_AT_EPOCH":"4747","TIME_SYSTEM":"UTC","TLE_LINE1":"1 47559U 21009M   21344.81585227  .00000614  00000-0  60118-4 0  9995","MEAN_ELEMENT_THEORY":"SGP4","MEAN_MOTION_DOT":"0.00000614","DECAY_DATE":null,"INCLINATION":"53.0542","GP_ID":"191458358","COUNTRY_CODE":"US","CENTER_NAME":"EARTH","OBJECT_ID":"2021-009M","PERIOD":"95.592","REF_FRAME":"TEME","APOAPSIS":"548.333","MEAN_MOTION_DDOT":"0.0000000000000","RCS_SIZE":"LARGE","OBJECT_NAME":"STARLINK-1958","MEAN_MOTION":"15.06398222","EPHEMERIS_TYPE":"0","SITE":"AFETR","CLASSIFICATION_TYPE":"U","SEMIMAJOR_AXIS":"6925.354","ELEMENT_SET_NO":"999","OBJECT_TYPE":"PAYLOAD","TLE_LINE2":"2 47559  53.0542 119.2744 0001609  86.3267 273.7906 15.06398222 47471","LAUNCH_DATE":"2021-02-04","RA_OF_ASC_NODE":"119.2744","ARG_OF_PERICENTER":"86.3267","EPOCH":"2021-12-10T19:34:49.636128","FILE":"3237005","ECCENTRICITY":"0.00016090","NORAD_CAT_ID":"47559"},{"DECAY_DATE":null,"MEAN_ELEMENT_THEORY":"SGP4","TLE_LINE1":"1 47560U 21009N   21344.80847990  .00000544  00000-0  55424-4 0  9990","MEAN_MOTION_DOT":"0.00000544","CENTER_NAME":"EARTH","OBJECT_ID":"2021-009N","COUNTRY_CODE":"US","PERIOD":"95.592","REF_FRAME":"TEME","INCLINATION":"53.0547","GP_ID":"191458108","PERIAPSIS":"545.948","BSTAR":"0.00005542400000","REV_AT_EPOCH":"4747","TIME_SYSTEM":"UTC","MEAN_ANOMALY":"261.9006","RA_OF_ASC_NODE":"119.3150","OBJECT_TYPE":"PAYLOAD","TLE_LINE2":"2 47560  53.0547 119.3150 0001800  98.2187 261.9006 15.06406314 47478","LAUNCH_DATE":"2021-02-04","SEMIMAJOR_AXIS":"6925.329","ELEMENT_SET_NO":"999","NORAD_CAT_ID":"47560","ECCENTRICITY":"0.00018000","ARG_OF_PERICENTER":"98.2187","FILE":"3237005","EPOCH":"2021-12-10T19:24:12.663360","OBJECT_NAME":"STARLINK-1959","MEAN_MOTION":"15.06406314","APOAPSIS":"548.441","RCS_SIZE":"LARGE","MEAN_MOTION_DDOT":"0.0000000000000","SITE":"AFETR","EPHEMERIS_TYPE":"0","CLASSIFICATION_TYPE":"U"},{"APOAPSIS":"551.616","MEAN_MOTION_DDOT":"0.0000000000000","RCS_SIZE":"LARGE","OBJECT_NAME":"STARLINK-1960","MEAN_MOTION":"15.06395661","EPHEMERIS_TYPE":"0","SITE":"AFETR","CLASSIFICATION_TYPE":"U","SEMIMAJOR_AXIS":"6925.362","ELEMENT_SET_NO":"999","TLE_LINE2":"2 47561  53.0561 139.0756 0006338 101.9305 258.2394 15.06395661 47203","LAUNCH_DATE":"2021-02-04","OBJECT_TYPE":"PAYLOAD","RA_OF_ASC_NODE":"139.0756","ARG_OF_PERICENTER":"101.9305","EPOCH":"2021-12-10T20:41:13.828704","FILE":"3237005","ECCENTRICITY":"0.00063380","NORAD_CAT_ID":"47561","PERIAPSIS":"542.838","MEAN_ANOMALY":"258.2394","BSTAR":"0.00004257800000","REV_AT_EPOCH":"4720","TIME_SYSTEM":"UTC","TLE_LINE1":"1 47561U 21009P   21344.86196561  .00000351  00000-0  42578-4 0  9990","MEAN_ELEMENT_THEORY":"SGP4","MEAN_MOTION_DOT":"0.00000351","DECAY_DATE":null,"GP_ID":"191459360","INCLINATION":"53.0561","COUNTRY_CODE":"US","OBJECT_ID":"2021-009P","CENTER_NAME":"EARTH","PERIOD":"95.592","REF_FRAME":"TEME"}];
